0 SL-14 DEB
1 19232U 78100AB  13283.07260532  .00000080  00000-0  12519-2 0  7407
2 19232 082.3291 293.9552 0193716 032.6538 024.2264 11.67356838 82539
0 SL-14 DEB
1 19232U 78100AB  13287.00811912  .00000032  00000-0  41152-3 0  7423
2 19232 082.3288 291.7910 0193693 025.2668 003.1609 11.67357443 82997
0 SL-14 DEB
1 19232U 78100AB  13290.46737372  .00000015  00000-0  12417-3 0  7438
2 19232 082.3292 289.8879 0193635 018.7841 140.6214 11.67357744 83398
0 SL-14 DEB
1 19232U 78100AB  13293.00730738  .00000043  00000-0  61853-3 0  7440
2 19232 082.3296 288.4910 0193647 014.0203 014.6580 11.67357719 83698
0 SL-14 DEB
1 19232U 78100AB  13294.04251159  .00000051  00000-0  74937-3 0  7457
2 19232 082.3298 287.9219 0193670 012.0810 045.0861 11.67357608 83815
0 SL-14 DEB
1 19232U 78100AB  13296.01337873  .00000060  00000-0  91168-3 0  7460
2 19232 082.3298 286.8380 0193649 008.3907 047.6201 11.67357491 84045
